OBJECT_NAME,OBJECT_ID,EPOCH,MEAN_MOTION,ECCENTRICITY,INCLINATION,RA_OF_ASC_NODE,ARG_OF_PERICENTER,MEAN_ANOMALY,EPHEMERIS_TYPE,CLASSIFICATION_TYPE,NORAD_CAT_ID,ELEMENT_SET_NO,REV_AT_EPOCH,BSTAR,MEAN_MOTION_DOT,MEAN_MOTION_DDOT
STARLINK-3594,2022-022AV,2026-07-12T00:39:13.927392,15.34384208,.00013436,53.1610,157.4969,105.0582,255.0570,0,U,51895,999,24206,-.890327E-5,-.677E-5,0
STARLINK-3593,2022-022AW,2026-07-12T00:40:56.449632,15.33547525,.00014995,53.1625,158.8933,80.0210,280.0962,0,U,51896,999,24209,.58663232E-4,.1557E-4,0
STARLINK-3598,2022-022AX,2026-07-11T21:34:33.297600,15.34389275,.0001201,53.1618,157.4515,90.6708,269.4432,0,U,51897,999,24205,.13672E-4,.86E-6,0
STARLINK-3597,2022-022AY,2026-07-12T08:00:01.999872,15.34368910,.00013347,53.1606,155.3972,77.6172,198.0504,0,U,51898,999,581,.1509999E-2,.50938E-3,0
2022-023A,2022-023A,2026-07-12T06:24:25.186752,15.17949737,.01098129,63.4832,185.2882,344.3364,15.4359,0,U,51946,999,24152,.17947397E-3,.4034E-4,0
2022-023B,2022-023B,2026-07-12T07:54:35.456256,15.17949719,.01038788,63.4832,184.4630,348.5449,11.3300,0,U,51947,999,24153,.20371378E-3,.4537E-4,0
2022-023C,2022-023C,2026-07-12T06:29:14.019360,15.17943242,.01069745,63.4909,186.1162,351.1731,8.7497,0,U,51948,999,24152,.18333389E-3,.4092E-4,0
2022-023D,2022-023D,2026-07-12T06:55:40.931616,15.17938686,.01293166,63.4481,186.4219,355.0850,4.8982,0,U,51949,999,24152,.19255294E-3,.4629E-4,0
2022-023E,2022-023E,2026-07-12T06:34:53.433984,13.56290741,.01619757,63.4604,247.9337,348.4179,11.3145,0,U,51950,999,22543,.98053972E-4,-.17E-6,0
2022-023F,2022-023F,2026-07-12T07:26:58.394976,15.17940930,.01328365,63.4438,188.0756,341.6263,18.0073,0,U,51951,999,24152,.22403926E-3,.55E-4,0
STARLINK-3700,2022-025A,2026-07-12T07:15:06.079680,15.31703417,.00013841,53.1588,153.8525,86.4282,273.6878,0,U,51956,999,24026,.18031447E-4,.194E-5,0
STARLINK-3694,2022-025B,2026-07-11T09:13:36.931008,15.31707186,.00013749,53.1590,181.3423,81.9566,278.1592,0,U,51957,999,23978,.51494822E-4,.1233E-4,0
STARLINK-3692,2022-025C,2026-07-11T21:37:53.494176,15.31710208,.0002816,53.1537,155.6254,97.3155,262.8166,0,U,51958,999,24020,.27254E-4,.48E-5,0
STARLINK-3704,2022-025D,2026-07-11T23:13:36.834816,15.31701753,.0001487,53.1601,179.1999,87.0746,273.0426,0,U,51959,999,23986,-.10014E-4,-.676E-5,0
STARLINK-3691,2022-025E,2026-07-11T22:52:22.971360,15.31701502,.00009412,53.1592,178.5091,72.8509,287.2595,0,U,51960,999,23987,.20212707E-4,.262E-5,0
STARLINK-3697,2022-025G,2026-07-10T23:18:38.702592,15.31711832,.00011763,53.1591,170.6948,83.5039,276.6096,0,U,51962,999,23990,.1613733E-4,.136E-5,0
STARLINK-3675,2022-025H,2026-07-11T23:05:08.727648,15.31703378,.00011172,53.1580,155.3430,93.2927,266.8202,0,U,51963,999,24021,.18828281E-4,.219E-5,0
STARLINK-3690,2022-025J,2026-07-11T08:22:16.055616,15.31709337,.00013377,53.1592,168.9226,109.1672,250.9475,0,U,51964,999,23996,-.13813359E-4,-.794E-5,0
STARLINK-3696,2022-025K,2026-07-12T00:06:18.634176,15.31701002,.00014832,53.1595,178.8173,81.6891,278.4279,0,U,51965,999,23987,.7867913E-5,-.121E-5,0
STARLINK-3699,2022-025L,2026-07-11T23:52:50.421792,15.31707036,.00012708,53.1602,178.6145,84.7259,275.3888,0,U,51966,999,23987,.45188935E-4,.1038E-4,0
STARLINK-3681,2022-025N,2026-07-12T07:38:14.974368,15.31703983,.00012307,53.1573,164.4115,95.8646,264.2496,0,U,51968,999,24011,-.3915448E-5,-.487E-5,0
STARLINK-3680,2022-025P,2026-07-11T22:34:38.397216,15.31705048,.0001416,53.1593,166.2114,95.6660,264.4503,0,U,51969,999,24004,.35017E-4,.722E-5,0
STARLINK-3677,2022-025Q,2026-07-11T09:01:16.070016,15.31708976,.00011142,53.1609,181.9845,91.4543,268.6586,0,U,51970,999,23977,.55415273E-4,.1355E-4,0
STARLINK-3669,2022-025R,2026-07-11T22:54:48.195072,15.31710612,.0001643,53.1597,166.3115,79.9557,280.1630,0,U,51971,999,24005,-.36862E-4,-.1509E-4,0
STARLINK-3671,2022-025S,2026-07-11T11:49:02.790624,15.31703265,.00012227,53.1614,181.3893,90.3319,269.7823,0,U,51972,999,23979,.27222715E-4,.48E-5,0
STARLINK-3679,2022-025T,2026-07-12T07:29:12.572448,15.31704540,.00012965,53.1601,177.1178,93.8063,266.3087,0,U,51973,999,23992,.6163981E-5,-.174E-5,0
STARLINK-3672,2022-025U,2026-07-12T07:35:58.204032,15.31703734,.00011004,53.1596,177.3252,91.8324,268.2803,0,U,51974,999,23991,-.15907583E-4,-.859E-5,0
STARLINK-3674,2022-025V,2026-07-12T07:44:51.920160,15.31701306,.00012197,53.1596,163.9220,64.4616,295.6512,0,U,51975,999,24012,.36456977E-4,.766E-5,0
STARLINK-3660,2022-025X,2026-07-11T23:30:04.344480,15.29357800,.00010747,53.1617,179.1304,79.8163,280.2959,0,U,51977,999,24012,.22847988E-4,.304E-5,0
STARLINK-3649,2022-025AA,2026-07-11T23:59:13.587648,15.08830455,.00010651,53.1594,200.8267,77.8818,282.2292,0,U,51980,999,23982,.20326158E-4,.36E-6,0
