STARLINK-3594           
1 51895U 22022AV  26193.02724453 -.00000677  00000+0 -89033-5 0  9993
2 51895  53.1610 157.4969 0001343 105.0582 255.0570 15.34384208242065
STARLINK-3593           
1 51896U 22022AW  26193.02843113  .00001557  00000+0  58663-4 0  9999
2 51896  53.1625 158.8933 0001499  80.0210 280.0962 15.33547525242098
STARLINK-3598           
1 51897U 22022AX  26192.89899650  .00000086  00000+0  13672-4 0  9998
2 51897  53.1618 157.4515 0001201  90.6708 269.4432 15.34389275242058
STARLINK-3597           
1 51898U 22022AY  26193.33335648  .00050938  00000+0  15100-2 0  9998
2 51898  53.1606 155.3972 0001334  77.6172 198.0504 15.34368910  5818
2022-023A               
1 51946U 22023A   26193.26695818  .00004034  00000+0  17947-3 0  9991
2 51946  63.4832 185.2882 0109812 344.3364  15.4359 15.17949737241529
2022-023B               
1 51947U 22023B   26193.32957704  .00004537  00000+0  20371-3 0  9997
2 51947  63.4832 184.4630 0103878 348.5449  11.3300 15.17949719241530
2022-023C               
1 51948U 22023C   26193.27030115  .00004092  00000+0  18333-3 0  9991
2 51948  63.4909 186.1162 0106974 351.1731   8.7497 15.17943242241520
2022-023D               
1 51949U 22023D   26193.28866819  .00004629  00000+0  19255-3 0  9991
2 51949  63.4481 186.4219 0129316 355.0850   4.8982 15.17938686241524
2022-023E               
1 51950U 22023E   26193.27422956 -.00000017  00000+0  98054-4 0  9995
2 51950  63.4604 247.9337 0161975 348.4179  11.3145 13.56290741225434
2022-023F               
1 51951U 22023F   26193.31039809  .00005500  00000+0  22404-3 0  9998
2 51951  63.4438 188.0756 0132836 341.6263  18.0073 15.17940930241526
STARLINK-3700           
1 51956U 22025A   26193.30215370  .00000194  00000+0  18031-4 0  9999
2 51956  53.1588 153.8525 0001384  86.4282 273.6878 15.31703417240260
STARLINK-3694           
1 51957U 22025B   26192.38445522  .00001233  00000+0  51495-4 0  9997
2 51957  53.1590 181.3423 0001374  81.9566 278.1592 15.31707186239786
STARLINK-3692           
1 51958U 22025C   26192.90131359  .00000480  00000+0  27254-4 0  9995
2 51958  53.1537 155.6254 0002816  97.3155 262.8166 15.31710208240206
STARLINK-3704           
1 51959U 22025D   26192.96778744 -.00000676  00000+0 -10014-4 0  9992
2 51959  53.1601 179.1999 0001487  87.0746 273.0426 15.31701753239869
STARLINK-3691           
1 51960U 22025E   26192.95304365  .00000262  00000+0  20213-4 0  9998
2 51960  53.1592 178.5091 0000941  72.8509 287.2595 15.31701502239876
STARLINK-3697           
1 51962U 22025G   26191.97128128  .00000136  00000+0  16137-4 0  9992
2 51962  53.1591 170.6948 0001176  83.5039 276.6096 15.31711832239908
STARLINK-3675           
1 51963U 22025H   26192.96190657  .00000219  00000+0  18828-4 0  9990
2 51963  53.1580 155.3430 0001117  93.2927 266.8202 15.31703378240214
STARLINK-3690           
1 51964U 22025J   26192.34879694 -.00000794  00000+0 -13813-4 0  9997
2 51964  53.1592 168.9226 0001337 109.1672 250.9475 15.31709337239966
STARLINK-3696           
1 51965U 22025K   26193.00438234 -.00000121  00000+0  78679-5 0  9998
2 51965  53.1595 178.8173 0001483  81.6891 278.4279 15.31701002239878
STARLINK-3699           
1 51966U 22025L   26192.99502803  .00001038  00000+0  45189-4 0  9996
2 51966  53.1602 178.6145 0001270  84.7259 275.3888 15.31707036239876
STARLINK-3681           
1 51968U 22025N   26193.31822887 -.00000487  00000+0 -39154-5 0  9997
2 51968  53.1573 164.4115 0001230  95.8646 264.2496 15.31703983240112
STARLINK-3680           
1 51969U 22025P   26192.94072219  .00000722  00000+0  35017-4 0  9995
2 51969  53.1593 166.2114 0001416  95.6660 264.4503 15.31705048240041
STARLINK-3677           
1 51970U 22025Q   26192.37588044  .00001355  00000+0  55415-4 0  9999
2 51970  53.1609 181.9845 0001114  91.4543 268.6586 15.31708976239773
STARLINK-3669           
1 51971U 22025R   26192.95472448 -.00001509  00000+0 -36862-4 0  9992
2 51971  53.1597 166.3115 0001643  79.9557 280.1630 15.31710612240052
STARLINK-3671           
1 51972U 22025S   26192.49239341  .00000480  00000+0  27223-4 0  9991
2 51972  53.1614 181.3893 0001222  90.3319 269.7823 15.31703265239791
STARLINK-3679           
1 51973U 22025T   26193.31195107 -.00000174  00000+0  61640-5 0  9998
2 51973  53.1601 177.1178 0001296  93.8063 266.3087 15.31704540239929
STARLINK-3672           
1 51974U 22025U   26193.31664588 -.00000859  00000+0 -15908-4 0  9999
2 51974  53.1596 177.3252 0001100  91.8324 268.2803 15.31703734239910
STARLINK-3674           
1 51975U 22025V   26193.32282315  .00000766  00000+0  36457-4 0  9992
2 51975  53.1596 163.9220 0001219  64.4616 295.6512 15.31701306240127
STARLINK-3660           
1 51977U 22025X   26192.97921695  .00000304  00000+0  22848-4 0  9992
2 51977  53.1617 179.1304 0001074  79.8163 280.2959 15.29357800240129
STARLINK-3649           
1 51980U 22025AA  26192.99946282  .00000036  00000+0  20326-4 0  9998
2 51980  53.1594 200.8267 0001065  77.8818 282.2292 15.08830455239828
